{
    "links": {
        "self": "http://www.neowsapp.com/rest/v1/neo/3579073?api_key=iIulBulltgU6a56xZRHN4H3l9WmuAYTsLGpBGhQ2"
    },
    "id": "3579073",
    "neo_reference_id": "3579073",
    "name": "(2011 SE58)",
    "designation": "2011 SE58",
    "nasa_jpl_url": "http://ssd.jpl.nasa.gov/sbdb.cgi?sstr=3579073",
    "absolute_magnitude_h": 27.8,
    "estimated_diameter": {
        "kilometers": {
            "estimated_diameter_min": 0.0073207399,
            "estimated_diameter_max": 0.016369672
        },
        "meters": {
            "estimated_diameter_min": 7.3207398935,
            "estimated_diameter_max": 16.3696720474
        },
        "miles": {
            "estimated_diameter_min": 0.0045488955,
            "estimated_diameter_max": 0.0101716395
        },
        "feet": {
            "estimated_diameter_min": 24.0181762721,
            "estimated_diameter_max": 53.70627484
        }
    },
    "is_potentially_hazardous_asteroid": false,
    "close_approach_data": [
        {
            "close_approach_date": "2011-09-27",
            "close_approach_date_full": "2011-Sep-27 02:47",
            "epoch_date_close_approach": 1317091620000,
            "relative_velocity": {
                "kilometers_per_second": "15.8379698625",
                "kilometers_per_hour": "57016.6915050389",
                "miles_per_hour": "35427.9547854504"
            },
            "miss_distance": {
                "astronomical": "0.0015875956",
                "lunar": "0.6175746884",
                "kilometers": "237500.920181372",
                "miles": "147576.2286000536"
            },
            "orbiting_body": "Earth"
        },
        {
            "close_approach_date": "2011-09-27",
            "close_approach_date_full": "2011-Sep-27 08:39",
            "epoch_date_close_approach": 1317112740000,
            "relative_velocity": {
                "kilometers_per_second": "16.001503619",
                "kilometers_per_hour": "57605.4130284446",
                "miles_per_hour": "35793.7634453688"
            },
            "miss_distance": {
                "astronomical": "0.0018000141",
                "lunar": "0.7002054849",
                "kilometers": "269278.275329967",
                "miles": "167321.7614768646"
            },
            "orbiting_body": "Moon"
        },
        {
            "close_approach_date": "2017-03-12",
            "close_approach_date_full": "2017-Mar-12 11:15",
            "epoch_date_close_approach": 1489317300000,
            "relative_velocity": {
                "kilometers_per_second": "28.7266547299",
                "kilometers_per_hour": "103415.9570276749",
                "miles_per_hour": "64258.653965335"
            },
            "miss_distance": {
                "astronomical": "0.4348979142",
                "lunar": "169.1752886238",
                "kilometers": "65059801.631762754",
                "miles": "40426286.1421798452"
            },
            "orbiting_body": "Earth"
        }
    ],
    "orbital_data": {
        "orbit_id": "7",
        "orbit_determination_date": "2017-04-06 08:52:42",
        "first_observation_date": "2011-09-21",
        "last_observation_date": "2011-09-27",
        "data_arc_in_days": 6,
        "observations_used": 55,
        "orbit_uncertainty": "7",
        "minimum_orbit_intersection": ".000692673",
        "jupiter_tisserand_invariant": "3.702",
        "epoch_osculation": "2459000.5",
        "eccentricity": ".6121153036553328",
        "semi_major_axis": "1.893564534200298",
        "inclination": "1.207600852106597",
        "ascending_node_longitude": "5.394095858047907",
        "orbital_period": "951.7405933240785",
        "perihelion_distance": ".7344847043573135",
        "perihelion_argument": "70.80818838214601",
        "aphelion_distance": "3.052644364043282",
        "perihelion_time": "2458733.811077427990",
        "mean_anomaly": "100.8762395965513",
        "mean_motion": ".378254329514992",
        "equinox": "J2000",
        "orbit_class": {
            "orbit_class_type": "APO",
            "orbit_class_description": "Near-Earth asteroid orbits which cross the Earth’s orbit similar to that of 1862 Apollo",
            "orbit_class_range": "a (semi-major axis) > 1.0 AU; q (perihelion) < 1.017 AU"
        }
    },
    "is_sentry_object": false
}